CSS (TIANHE)            
1 48274U 21035A   24259.18804301  .00034068  00000+0  35177-3 0  9999
2 48274  41.4677 254.4043 0002030 152.7487 207.3460 15.64062871193170
